[{"OBJECT_NAME":"STARS-AO","OBJECT_ID":"2018-084J","EPOCH":"2026-03-09T20:00:51.608160","MEAN_MOTION":15.15819992,"ECCENTRICITY":0.00030362,"INCLINATION":98.062,"RA_OF_ASC_NODE":276.6974,"ARG_OF_PERICENTER":126.1891,"MEAN_ANOMALY":233.9621,"EPHEMERIS_TYPE":0,"CLASSIFICATION_TYPE":"U","NORAD_CAT_ID":43679,"ELEMENT_SET_NO":999,"REV_AT_EPOCH":40241,"BSTAR":0.00043170347,"MEAN_MOTION_DOT":8.179e-5,"MEAN_MOTION_DDOT":0},{"OBJECT_NAME":"SUPERVIEW NEO-1 02","OBJECT_ID":"2022-043C","EPOCH":"2026-03-09T23:18:16.407072","MEAN_MOTION":15.15488211,"ECCENTRICITY":0.00011754,"INCLINATION":97.3469,"RA_OF_ASC_NODE":144.9918,"ARG_OF_PERICENTER":5.9221,"MEAN_ANOMALY":354.2026,"EPHEMERIS_TYPE":0,"CLASSIFICATION_TYPE":"U","NORAD_CAT_ID":52322,"ELEMENT_SET_NO":999,"REV_AT_EPOCH":21454,"BSTAR":0.00034150894,"MEAN_MOTION_DOT":6.402e-5,"MEAN_MOTION_DDOT":0}]
